STARLINK-37641          
1 69445U 26127C   26184.97435588  .00288555  00000+0  18169-2 0  9995
2 69445  53.1578 178.7716 0002353 101.2689 258.8596 15.75315654  4050
STARLINK-37522          
1 69446U 26127D   26184.98797009  .00418074  00000+0  25712-2 0  9999
2 69446  53.1600 178.8635 0001845 131.5189 228.5990 15.75485277  4055
STARLINK-37640          
1 69447U 26127E   26185.02418548  .00308339  00000+0  19402-2 0  9995
2 69447  53.1594 178.3659 0001341 330.8106  29.2839 15.75274161  4060
STARLINK-37572          
1 69448U 26127F   26185.16955968  .00274658  00000+0  17345-2 0  9993
2 69448  53.1593 177.8579 0001153  49.6764 310.4357 15.75289811  4081
STARLINK-37643          
1 69449U 26127G   26184.98376123  .00395980  00000+0  24510-2 0  9997
2 69449  53.1601 178.8359 0001253 110.5661 249.5494 15.75400444  4052
STARLINK-37601          
1 69450U 26127H   26184.98343236  .00336251  00000+0  20965-2 0  9994
2 69450  53.1607 178.8326 0001620 107.9794 252.1403 15.75404629  4058
STARLINK-37578          
1 69451U 26127J   26184.96981617  .00265539  00000+0  16649-2 0  9998
2 69451  53.1569 178.7400 0002028 115.5322 244.5908 15.75480914  4059
STARLINK-37577          
1 69452U 26127K   26185.20997717  .00200983  00000+0  12787-2 0  9996
2 69452  53.1596 177.3884 0002031 141.5567 218.5599 15.75340192  4099
STARLINK-37500          
1 69453U 26127L   26184.26738278 -.01192681  00000+0 -85113-2 0  9998
2 69453  53.1567 182.1776 0001079  42.9454 317.1650 15.75906019  3945
STARLINK-37575          
1 69454U 26127M   26185.01543449  .00220213  00000+0  13968-2 0  9996
2 69454  53.1595 178.3071 0001080 128.1485 231.9633 15.75351229  4060
STARLINK-37642          
1 69455U 26127N   26184.52602207  .00123229  00000+0  79474-3 0  9994
2 69455  53.1566 180.9475 0001391  60.7472 299.3687 15.75286454  3982
STARLINK-37513          
1 69456U 26127P   26184.53637440 -.00521363  00000+0 -28666-2 0  9992
2 69456  53.1566 180.2777 0003998  26.3287 333.7938 15.80344386  3996
STARLINK-37563          
1 69457U 26127Q   26185.01997340  .00227800  00000+0  14430-2 0  9996
2 69457  53.1598 178.3360 0001389 123.3854 236.7300 15.75359086  4069
STARLINK-37565          
1 69458U 26127R   26185.01055706  .00304555  00000+0  19103-2 0  9993
2 69458  53.1578 178.2706 0002191 170.6843 189.4219 15.75357789  4067
STARLINK-37498          
1 69459U 26127S   26185.02872387  .00322215  00000+0  20247-2 0  9991
2 69459  53.1570 178.3916 0000973   8.2665 351.8371 15.75264982  4064
STARLINK-37384          
1 69460U 26127T   26185.20544041  .00189425  00000+0  12085-2 0  9991
2 69460  53.1596 177.3570 0001345 117.3441 242.7716 15.75313192  4099
STARLINK-37707          
1 69461U 26127U   26184.50332041  .00347899  00000+0  21633-2 0  9999
2 69461  53.1589 180.7952 0001649  68.8411 291.2786 15.75432955  3980
STARLINK-37525          
1 69462U 26127V   26185.00602829  .00221893  00000+0  14069-2 0  9990
2 69462  53.1576 178.2405 0001068 103.5563 256.5576 15.75355439  4064
STARLINK-37526          
1 69463U 26127W   26185.00181834  .00408808  00000+0  25254-2 0  9990
2 69463  53.1567 178.2115 0001113 132.8102 227.3012 15.75409388  4062
STARLINK-37574          
1 69464U 26127X   26185.00633457  .00267598  00000+0  16829-2 0  9991
2 69464  53.1576 178.2419 0000690 118.1803 241.9288 15.75405617  4062
STARLINK-37535          
1 69465U 26127Y   26184.49392027  .00216242  00000+0  13773-2 0  9994
2 69465  53.1568 180.7309 0001267 102.3662 257.7501 15.75268281  3986
STARLINK-37583          
1 69466U 26127Z   26185.16492240  .00228944  00000+0  14542-2 0  9995
2 69466  53.1591 177.0828 0000802  42.0300 318.0782 15.75291868  4093
STARLINK-37546          
1 69467U 26127AA  26184.99727958  .00395552  00000+0  24456-2 0  9998
2 69467  53.1565 178.1772 0001833 132.1985 227.9191 15.75427717  4063
STARLINK-37532          
1 69468U 26127AB  26185.16671296 -.00146094  00000+0 -96273-3 0  9996
2 69468  53.1595 176.9147 0001143  80.8985   6.6287 15.75301666  5379
STARLINK-37708          
1 69469U 26127AC  26184.99695048  .00364543  00000+0  22650-2 0  9994
2 69469  53.1567 178.1742 0001317 106.9562 253.1603 15.75403252  4068
STARLINK-37686          
1 69470U 26127AD  26184.42173007  .00276193  00000+0  17437-2 0  9990
2 69470  53.1577 180.9847 0002090  43.1713 316.9471 15.75290845  3979
STARLINK-37451          
1 69471U 26127AE  26185.19907628  .00248194  00000+0  12197-2 0  9998
2 69471  53.1574 176.5706 0001246 129.4000 230.7134 15.80970886  4102
DTC TEST OBJECT A       
1 69472U 26128A   26185.32154220  .00019639  00000+0  31185-3 0  9996
2 69472  55.0002 225.8974 0010325 342.3727  17.6948 15.53362777  3899
DTC TEST OBJECT B       
1 69473U 26128B   26178.37654890  .00024134  00000+0  33565-3 0  9992
2 69473  55.0021 257.9040 0009934 325.3113  34.7274 15.56860342  2801
TJS-25                  
1 69474U 26129A   26185.01641770 -.00000358  00000+0  00000+0 0  9993
2 69474   5.9664 330.2848 0002593 286.0012 151.9043  1.00269603   233
