OBJECT_NAME,OBJECT_ID,EPOCH,MEAN_MOTION,ECCENTRICITY,INCLINATION,RA_OF_ASC_NODE,ARG_OF_PERICENTER,MEAN_ANOMALY,EPHEMERIS_TYPE,CLASSIFICATION_TYPE,NORAD_CAT_ID,ELEMENT_SET_NO,REV_AT_EPOCH,BSTAR,MEAN_MOTION_DOT,MEAN_MOTION_DDOT
STARLINK-37641,2026-127C,2026-07-03T23:23:04.348032,15.75315654,.00023537,53.1578,178.7716,101.2689,258.8596,0,U,69445,999,405,.18169433E-2,.288555E-2,0
STARLINK-37522,2026-127D,2026-07-03T23:42:40.615776,15.75485277,.00018455,53.1600,178.8635,131.5189,228.5990,0,U,69446,999,405,.25712344E-2,.418074E-2,0
STARLINK-37640,2026-127E,2026-07-04T00:34:49.625472,15.75274161,.00013413,53.1594,178.3659,330.8106,29.2839,0,U,69447,999,406,.19401877E-2,.308339E-2,0
STARLINK-37572,2026-127F,2026-07-04T04:04:09.956352,15.75289811,.00011536,53.1593,177.8579,49.6764,310.4357,0,U,69448,999,408,.1734476E-2,.274658E-2,0
STARLINK-37643,2026-127G,2026-07-03T23:36:36.970272,15.75400444,.00012537,53.1601,178.8359,110.5661,249.5494,0,U,69449,999,405,.2450989E-2,.39598E-2,0
STARLINK-37601,2026-127H,2026-07-03T23:36:08.555904,15.75404629,.00016201,53.1607,178.8326,107.9794,252.1403,0,U,69450,999,405,.20964829E-2,.336251E-2,0
STARLINK-37578,2026-127J,2026-07-03T23:16:32.117088,15.75480914,.00020287,53.1569,178.7400,115.5322,244.5908,0,U,69451,999,405,.16649212E-2,.265539E-2,0
STARLINK-37577,2026-127K,2026-07-04T05:02:22.027488,15.75340192,.00020313,53.1596,177.3884,141.5567,218.5599,0,U,69452,999,409,.12786781E-2,.200983E-2,0
STARLINK-37500,2026-127L,2026-07-03T06:25:01.872192,15.75906019,.00010799,53.1567,182.1776,42.9454,317.1650,0,U,69453,999,394,-.85113067E-2,-.1192681E-1,0
STARLINK-37575,2026-127M,2026-07-04T00:22:13.539936,15.75351229,.00010807,53.1595,178.3071,128.1485,231.9633,0,U,69454,999,406,.13967855E-2,.220213E-2,0
STARLINK-37642,2026-127N,2026-07-03T12:37:28.306848,15.75286454,.00013911,53.1566,180.9475,60.7472,299.3687,0,U,69455,999,398,.79473545E-3,.123229E-2,0
STARLINK-37513,2026-127P,2026-07-03T12:52:22.748160,15.80344386,.00039983,53.1566,180.2777,26.3287,333.7938,0,U,69456,999,399,-.28666313E-2,-.521363E-2,0
STARLINK-37563,2026-127Q,2026-07-04T00:28:45.701760,15.75359086,.00013899,53.1598,178.3360,123.3854,236.7300,0,U,69457,999,406,.14429693E-2,.2278E-2,0
STARLINK-37565,2026-127R,2026-07-04T00:15:12.129984,15.75357789,.00021913,53.1578,178.2706,170.6843,189.4219,0,U,69458,999,406,.19103198E-2,.304555E-2,0
STARLINK-37498,2026-127S,2026-07-04T00:41:21.742368,15.75264982,.00009738,53.1570,178.3916,8.2665,351.8371,0,U,69459,999,406,.20247232E-2,.322215E-2,0
STARLINK-37384,2026-127T,2026-07-04T04:55:50.051424,15.75313192,.0001345,53.1596,177.3570,117.3441,242.7716,0,U,69460,999,409,.12084867E-2,.189425E-2,0
STARLINK-37707,2026-127U,2026-07-03T12:04:46.883424,15.75432955,.00016498,53.1589,180.7952,68.8411,291.2786,0,U,69461,999,398,.21632719E-2,.347899E-2,0
STARLINK-37525,2026-127V,2026-07-04T00:08:40.844256,15.75355439,.0001068,53.1576,178.2405,103.5563,256.5576,0,U,69462,999,406,.140687E-2,.221893E-2,0
STARLINK-37526,2026-127W,2026-07-04T00:02:37.104576,15.75409388,.00011133,53.1567,178.2115,132.8102,227.3012,0,U,69463,999,406,.25253539E-2,.408808E-2,0
STARLINK-37574,2026-127X,2026-07-04T00:09:07.306848,15.75405617,.00006906,53.1576,178.2419,118.1803,241.9288,0,U,69464,999,406,.16828754E-2,.267598E-2,0
STARLINK-37535,2026-127Y,2026-07-03T11:51:14.711328,15.75268281,.00012678,53.1568,180.7309,102.3662,257.7501,0,U,69465,999,398,.13772821E-2,.216242E-2,0
STARLINK-37583,2026-127Z,2026-07-04T03:57:29.295360,15.75291868,.00008025,53.1591,177.0828,42.0300,318.0782,0,U,69466,999,409,.14542368E-2,.228944E-2,0
STARLINK-37546,2026-127AA,2026-07-03T23:56:04.955712,15.75427717,.00018334,53.1565,178.1772,132.1985,227.9191,0,U,69467,999,406,.24456192E-2,.395552E-2,0
STARLINK-37532,2026-127AB,2026-07-04T04:00:03.999744,15.75301666,.00011435,53.1595,176.9147,80.8985,6.6287,0,U,69468,999,537,-.96273159E-3,-.146094E-2,0
STARLINK-37708,2026-127AC,2026-07-03T23:55:36.521472,15.75403252,.00013179,53.1567,178.1742,106.9562,253.1603,0,U,69469,999,406,.22649612E-2,.364543E-2,0
STARLINK-37686,2026-127AD,2026-07-03T10:07:17.478048,15.75290845,.00020906,53.1577,180.9847,43.1713,316.9471,0,U,69470,999,397,.17437437E-2,.276193E-2,0
STARLINK-37451,2026-127AE,2026-07-04T04:46:40.190592,15.80970886,.00012465,53.1574,176.5706,129.4000,230.7134,0,U,69471,999,410,.12197004E-2,.248194E-2,0
DTC TEST OBJECT A,2026-128A,2026-07-04T07:43:01.246080,15.53362777,.00103256,55.0002,225.8974,342.3727,17.6948,0,U,69472,999,389,.31184889E-3,.19639E-3,0
DTC TEST OBJECT B,2026-128B,2026-06-27T09:02:13.824960,15.56860342,.0009934,55.0021,257.9040,325.3113,34.7274,0,U,69473,999,280,.3356545E-3,.24134E-3,0
TJS-25,2026-129A,2026-07-04T00:23:38.489280,1.00269603,.00025933,5.9664,330.2848,286.0012,151.9043,0,U,69474,999,23,0,-.358E-5,0
